[{"OBJECT_NAME":"STARLINK-1801","OBJECT_ID":"2020-073AH","EPOCH":"2026-03-10T00:00:02.999808","MEAN_MOTION":15.71605578,"ECCENTRICITY":0.00058448,"INCLINATION":53.0451,"RA_OF_ASC_NODE":196.4487,"ARG_OF_PERICENTER":213.6688,"MEAN_ANOMALY":260.6117,"EPHEMERIS_TYPE":0,"CLASSIFICATION_TYPE":"U","NORAD_CAT_ID":46701,"ELEMENT_SET_NO":999,"REV_AT_EPOCH":590,"BSTAR":4.5163381e-5,"MEAN_MOTION_DOT":5.32e-5,"MEAN_MOTION_DDOT":0},{"OBJECT_NAME":"STARLINK-11247 [DTC]","OBJECT_ID":"2024-152A","EPOCH":"2026-03-09T09:21:10.188000","MEAN_MOTION":15.69716924,"ECCENTRICITY":4.519e-5,"INCLINATION":53.1567,"RA_OF_ASC_NODE":118.053,"ARG_OF_PERICENTER":124.4339,"MEAN_ANOMALY":235.6721,"EPHEMERIS_TYPE":0,"CLASSIFICATION_TYPE":"U","NORAD_CAT_ID":60720,"ELEMENT_SET_NO":999,"REV_AT_EPOCH":8878,"BSTAR":7.1127471e-5,"MEAN_MOTION_DOT":8.04e-5,"MEAN_MOTION_DDOT":0}]
